NORAD_CAT_ID,OBJECT_NAME,OBJECT_TYPE,EPOCH,MEAN_MOTION,ECCENTRICITY,INCLINATION,RA_OF_ASC_NODE,ARG_OF_PERICENTER,MEAN_ANOMALY,BSTAR,MEAN_MOTION_DOT,MEAN_MOTION_DDOT,TLE_LINE0,TLE_LINE1,TLE_LINE2,SEMIMAJOR_AXIS,PERIOD,APOGEE,PERIGEE,DECAYED
53889.0,STARLINK-5031,PAYLOAD,2024-06-14 16:58:54,15.088339,0.0001209,53.2188,285.8434,99.7018,260.4111,0.00018445,2.648e-05,0.0,0 STARLINK-5031,1 53889U 22119D   24166.70757047  .00002648  00000-0  18445-3 0  9999,2 53889  53.2188 285.8434 0001209  99.7018 260.4111 15.08833900 96122,6917.899,95.438,540.6,538.928,0.0
53889.0,STARLINK-5031,PAYLOAD,2024-06-15 13:38:54,15.0883969,0.0001207,53.2173,281.974,83.2263,276.8866,-6.9319e-06,-3.98e-06,0.0,0 STARLINK-5031,1 53889U 22119D   24167.56868387 -.00000398  00000-0 -69319-5 0  9994,2 53889  53.2173 281.9740 0001207  83.2263 276.8866 15.08839690 96255,6917.881,95.438,540.581,538.911,0.0
53889.0,STARLINK-5031,PAYLOAD,2024-06-15 16:49:40,15.08843751,0.000112,53.2171,281.3798,90.4983,269.6137,0.00018751,2.698e-05,0.0,0 STARLINK-5031,1 53889U 22119D   24167.70116228  .00002698  00000-0  18751-3 0  9995,2 53889  53.2171 281.3798 0001120  90.4983 269.6137 15.08843751 96279,6917.869,95.437,540.509,538.959,0.0
53889.0,STARLINK-5031,PAYLOAD,2024-06-16 13:29:41,15.08841571,9.59e-05,53.2162,277.5141,91.3122,268.798,0.00021833,3.189e-05,0.0,0 STARLINK-5031,1 53889U 22119D   24168.56228347  .00003189  00000-0  21833-3 0  9997,2 53889  53.2162 277.5141 0000959  91.3122 268.7980 15.08841571 96401,6917.876,95.437,540.404,539.077,0.0
53889.0,STARLINK-5031,PAYLOAD,2024-06-16 15:05:04,15.08846784,0.0001151,53.2158,277.2174,88.7159,271.3965,0.00039871,6.064e-05,0.0,0 STARLINK-5031,1 53889U 22119D   24168.62852303  .00006064  00000-0  39871-3 0  9995,2 53889  53.2158 277.2174 0001151  88.7159 271.3965 15.08846784 96419,6917.86,95.437,540.521,538.928,0.0
53889.0,STARLINK-5031,PAYLOAD,2024-06-17 13:20:28,15.0883535,0.0001234,53.2164,273.0535,102.7375,257.3755,0.00031196,4.68e-05,0.0,0 STARLINK-5031,1 53889U 22119D   24169.55588568  .00004680  00000-0  31196-3 0  9991,2 53889  53.2164 273.0535 0001234 102.7375 257.3755 15.08835350 96553,6917.895,95.438,540.613,538.906,0.0
53889.0,STARLINK-5031,PAYLOAD,2024-06-18 13:11:15,15.08846341,0.0001261,53.2162,268.5938,98.1434,261.9701,0.00055749,8.597e-05,0.0,0 STARLINK-5031,1 53889U 22119D   24170.54948795  .00008597  00000-0  55749-3 0  9995,2 53889  53.2162 268.5938 0001261  98.1434 261.9701 15.08846341 96702,6917.861,95.437,540.598,538.854,0.0
53889.0,STARLINK-5031,PAYLOAD,2024-06-19 13:02:03,15.08838744,0.0001068,53.2158,264.1309,86.2209,273.8906,0.00010498,1.383e-05,0.0,0 STARLINK-5031,1 53889U 22119D   24171.54309095  .00001383  00000-0  10498-3 0  9998,2 53889  53.2158 264.1309 0001068  86.2209 273.8906 15.08838744 96431,6917.884,95.438,540.488,539.01,0.0
53889.0,STARLINK-5031,PAYLOAD,2024-06-19 16:12:49,15.08835311,0.0001259,53.2173,263.5392,89.0644,271.0493,4.4982e-05,4.28e-06,0.0,0 STARLINK-5031,1 53889U 22119D   24171.67557201  .00000428  00000-0  44982-4 0  9991,2 53889  53.2173 263.5392 0001259  89.0644 271.0493 15.08835311 96875,6917.895,95.438,540.631,538.889,0.0
53889.0,STARLINK-5031,PAYLOAD,2024-06-20 12:52:50,15.08841512,0.0001286,53.2174,259.674,89.6704,270.4435,0.00024683,3.643e-05,0.0,0 STARLINK-5031,1 53889U 22119D   24172.53669324  .00003643  00000-0  24683-3 0  9994,2 53889  53.2174 259.6740 0001286  89.6704 270.4435 15.08841512 97007,6917.876,95.437,540.63,538.851,0.0
53889.0,STARLINK-5031,PAYLOAD,2024-06-21 04:46:41,15.08852961,0.0001438,53.2185,256.7059,109.6462,250.4685,0.00038191,5.797e-05,0.0,0 STARLINK-5031,1 53889U 22119D   24173.19909182  .00005797  00000-0  38191-3 0  9997,2 53889  53.2185 256.7059 0001438 109.6462 250.4685 15.08852961 96681,6917.841,95.437,540.701,538.711,0.0
53889.0,STARLINK-5031,PAYLOAD,2024-06-21 11:08:14,15.08839054,0.0001291,53.2171,255.5114,100.6812,259.4326,6.7276e-05,7.83e-06,0.0,0 STARLINK-5031,1 53889U 22119D   24173.46405382  .00000783  00000-0  67276-4 0  9997,2 53889  53.2171 255.5114 0001291 100.6812 259.4326 15.08839054 96726,6917.883,95.438,540.641,538.855,0.0
53889.0,STARLINK-5031,PAYLOAD,2024-06-22 12:34:24,15.08840244,0.0001195,53.2158,250.753,100.3752,259.7375,0.00028511,4.253e-05,0.0,0 STARLINK-5031,1 53889U 22119D   24174.52389584  .00004253  00000-0  28511-3 0  9994,2 53889  53.2158 250.7530 0001195 100.3752 259.7375 15.08840244 96880,6917.88,95.438,540.571,538.918,0.0
53889.0,STARLINK-5031,PAYLOAD,2024-06-23 14:00:34,15.08850071,0.0001129,53.2151,245.9942,92.756,267.3561,0.00029844,4.466e-05,0.0,0 STARLINK-5031,1 53889U 22119D   24175.58373215  .00004466  00000-0  29844-3 0  9991,2 53889  53.2151 245.9942 0001129  92.7560 267.3561 15.08850071 97460,6917.85,95.437,540.496,538.934,0.0
53889.0,STARLINK-5031,PAYLOAD,2024-06-24 10:40:35,15.08840129,0.0001216,53.2154,242.1281,91.4622,268.6509,7.5791e-05,9.19e-06,0.0,0 STARLINK-5031,1 53889U 22119D   24176.44485610  .00000919  00000-0  75791-4 0  9992,2 53889  53.2154 242.1281 0001216  91.4622 268.6509 15.08840129 97177,6917.88,95.438,540.586,538.904,0.0
53889.0,STARLINK-5031,PAYLOAD,2024-06-25 10:31:22,15.0884395,0.0001436,53.2165,237.6676,106.878,253.2369,8.4899e-05,1.064e-05,0.0,0 STARLINK-5031,1 53889U 22119D   24177.43845364  .00001064  00000-0  84899-4 0  9999,2 53889  53.2165 237.6676 0001436 106.8780 253.2369 15.08843950 97748,6917.868,95.437,540.727,538.74,0.0
53889.0,STARLINK-5031,PAYLOAD,2024-06-26 10:22:09,15.08844274,0.0001222,53.2148,233.2061,99.9418,260.1712,0.00016258,2.301e-05,0.0,0 STARLINK-5031,1 53889U 22119D   24178.43205255  .00002301  00000-0  16258-3 0  9997,2 53889  53.2148 233.2061 0001222  99.9418 260.1712 15.08844274 97471,6917.867,95.437,540.578,538.887,0.0
53889.0,STARLINK-5031,PAYLOAD,2024-06-27 10:12:56,15.08840068,0.0001338,53.2159,228.7505,92.1447,267.9698,-1.3623e-06,-3.1e-06,0.0,0 STARLINK-5031,1 53889U 22119D   24179.42565460 -.00000310  00000-0 -13623-5 0  9999,2 53889  53.2159 228.7505 0001338  92.1447 267.9698 15.08840068 97622,6917.88,95.438,540.671,538.82,0.0
53889.0,STARLINK-5031,PAYLOAD,2024-06-28 10:03:46,15.08814638,0.0001069,53.2149,224.2883,83.7036,276.4078,-8.0298e-05,-1.565e-05,0.0,0 STARLINK-5031,1 53889U 22119D   24180.41928534 -.00001565  00000-0 -80298-4 0  9999,2 53889  53.2149 224.2883 0001069  83.7036 276.4078 15.08814638 97779,6917.958,95.439,540.562,539.083,0.0
53889.0,STARLINK-5031,PAYLOAD,2024-06-29 09:54:31,15.0884189,0.0001267,53.2146,219.8263,85.1014,275.0123,0.0002347,3.45e-05,0.0,0 STARLINK-5031,1 53889U 22119D   24181.41286625  .00003450  00000-0  23470-3 0  9999,2 53889  53.2146 219.8263 0001267  85.1014 275.0123 15.08841890 97923,6917.875,95.437,540.616,538.863,0.0
53889.0,STARLINK-5031,PAYLOAD,2024-06-29 13:05:17,15.08843271,0.0001273,53.2147,219.2312,83.8818,276.2319,0.00024924,3.681e-05,0.0,0 STARLINK-5031,1 53889U 22119D   24181.54534575  .00003681  00000-0  24924-3 0  9994,2 53889  53.2147 219.2312 0001273  83.8818 276.2319 15.08843271 98361,6917.87,95.437,540.616,538.855,0.0
53889.0,STARLINK-5031,PAYLOAD,2024-06-29 19:26:50,15.08848573,0.000129,53.215,218.0423,83.1782,276.9357,0.00031493,4.729e-05,0.0,0 STARLINK-5031,1 53889U 22119D   24181.81030319  .00004729  00000-0  31493-3 0  9994,2 53889  53.2150 218.0423 0001290  83.1782 276.9357 15.08848573 98401,6917.854,95.437,540.612,538.827,0.0
53889.0,STARLINK-5031,PAYLOAD,2024-06-30 09:45:19,15.08825682,0.0001483,53.2157,215.3687,88.0097,272.1065,0.00029346,4.384e-05,0.0,0 STARLINK-5031,1 53889U 22119D   24182.40647888  .00004384  00000-0  29346-3 0  9996,2 53889  53.2157 215.3687 0001483  88.0097 272.1065 15.08825682 98070,6917.924,95.438,540.815,538.763,0.0
53889.0,STARLINK-5031,PAYLOAD,2024-06-30 11:20:43,15.08819185,0.0001784,53.2156,215.0778,123.866,236.2502,0.0003511,5.301e-05,0.0,0 STARLINK-5031,1 53889U 22119D   24182.47272046  .00005301  00000-0  35110-3 0  9999,2 53889  53.2156 215.0778 0001784 123.8660 236.2502 15.08819185 98501,6917.944,95.439,541.043,538.575,0.0
53889.0,STARLINK-5031,PAYLOAD,2024-06-30 19:17:37,15.0884514,0.0001397,53.2161,213.584,89.6994,270.4158,5.4756e-05,5.84e-06,0.0,0 STARLINK-5031,1 53889U 22119D   24182.80391053  .00000584  00000-0  54756-4 0  9992,2 53889  53.2161 213.5840 0001397  89.6994 270.4158 15.08845140 98135,6917.865,95.437,540.696,538.763,0.0
53889.0,STARLINK-5031,PAYLOAD,2024-07-01 11:11:28,15.08854684,0.0001277,53.2155,210.6068,90.2877,269.8262,0.00011471,1.539e-05,0.0,0 STARLINK-5031,1 53889U 22119D   24183.46629923  .00001539  00000-0  11471-3 0  9992,2 53889  53.2155 210.6068 0001277  90.2877 269.8262 15.08854684 98235,6917.836,95.437,540.584,538.817,0.0
53889.0,STARLINK-5031,PAYLOAD,2024-07-01 19:08:23,15.08855795,0.0001278,53.2156,209.1205,89.9056,270.2083,0.00011202,1.496e-05,0.0,0 STARLINK-5031,1 53889U 22119D   24183.79749626  .00001496  00000-0  11202-3 0  9995,2 53889  53.2156 209.1205 0001278  89.9056 270.2083 15.08855795 98700,6917.832,95.437,540.581,538.813,0.0
53889.0,STARLINK-5031,PAYLOAD,2024-07-02 07:51:29,15.08839965,0.000129,53.2144,206.743,85.01,275.104,7.0784e-05,8.39e-06,0.0,0 STARLINK-5031,1 53889U 22119D   24184.32742462  .00000839  00000-0  70784-4 0  9997,2 53889  53.2144 206.7430 0001290  85.0100 275.1040 15.08839965 98361,6917.88,95.438,540.638,538.853,0.0
53889.0,STARLINK-5031,PAYLOAD,2024-07-02 18:59:11,15.08844236,0.0001305,53.2146,204.6615,84.3231,275.791,7.028e-05,8.31e-06,0.0,0 STARLINK-5031,1 53889U 22119D   24184.79110169  .00000831  00000-0  70280-4 0  9994,2 53889  53.2146 204.6615 0001305  84.3231 275.7910 15.08844236 98852,6917.867,95.437,540.635,538.83,0.0
53889.0,STARLINK-5031,PAYLOAD,2024-07-03 07:42:16,15.08842839,0.0001372,53.2163,202.281,91.2047,268.9102,-1.235e-06,-3.08e-06,0.0,0 STARLINK-5031,1 53889U 22119D   24185.32102341 -.00000308  00000-0 -12350-5 0  9993,2 53889  53.2163 202.2810 0001372  91.2047 268.9102 15.08842839 98931,6917.872,95.437,540.686,538.788,0.0
